*******************************************************************************
Ephemeris / WWW_USER Fri Mar  7 11:28:16 2025 Pasadena, USA      / Horizons    
*******************************************************************************
Target body name: (2018 UG3)                      {source: JPL#15}
Center body name: Earth (399)                     {source: DE441}
Center-site name: Mauna Kea
*******************************************************************************
Start time      : A.D. 2018-Aug-28 04:50:00.0000 UT      
Stop  time      : A.D. 2018-Aug-28 15:56:00.0000 UT      
Step-size       : 1 minutes
*******************************************************************************
Target pole/equ : undefined
Target radii    : undefined                                                    
Center geodetic : 204.5278, 19.8260847, 4.21024   {E-lon(deg),Lat(deg),Alt(km)}
Center cylindric: 204.5278, 6006.35451, 2151.0229 {E-lon(deg),Dxy(km),Dz(km)}
Center pole/equ : ITRF93                          {East-longitude positive}
Center radii    : 6378.137, 6378.137, 6356.752 km {Equator_a, b, pole_c}       
Target primary  : Sun
Vis. interferer : MOON (R_eq= 1737.400) km        {source: DE441}
Rel. light bend : Sun                             {source: DE441}
Rel. lght bnd GM: 1.3271E+11 km^3/s^2                                          
Small-body perts: Yes                             {source: SB441-N16}
Atmos refraction: NO (AIRLESS)
RA format       : HMS
Time format     : CAL 
Calendar mode   : Mixed Julian/Gregorian
RTS-only print  : NO       
EOP file        : eop.250306.p250602                                           
EOP coverage    : DATA-BASED 1962-JAN-20 TO 2025-MAR-06. PREDICTS-> 2025-JUN-01
Units conversion: 1 au= 149597870.700 km, c= 299792.458 km/s, 1 day= 86400.0 s 
Table cut-offs 1: Elevation (-90.0deg=NO ),Airmass (>38.000=NO), Daylight (YES)
Table cut-offs 2: Solar elongation (  0.0,180.0=NO ),Local Hour Angle( 0.0=NO )
Table cut-offs 3: RA/DEC angular rate (     0.0=NO )                           
*******************************************************************************
Initial IAU76/J2000 heliocentric ecliptic osculating elements (au, days, deg.):
  EPOCH=  2458429.5 ! 2018-Nov-07.00 (TDB)         Residual RMS= .46194        
   EC= .4227384440318329   QR= .9585039390071354   TP= 2458393.2526467689      
   OM= 47.27406359171053   W=  314.2704472892426   IN= 6.159551265235018       
  Equivalent ICRF heliocentric cartesian coordinates (au, au/d):
   X= 7.430529944075828E-01  Y= 6.714692173902916E-01  Z= 2.851295671149762E-01
  VX=-1.040372162305418E-02 VY= 1.447630012002514E-02 VZ= 8.505235531163944E-03
Asteroid physical parameters (km, seconds, rotational period in hours):        
   GM= n.a.                RAD= n.a.               ROTPER= n.a.                
   H= 24.5                 G= .150                 B-V= n.a.                   
                           ALBEDO= n.a.            STYP= n.a.                  
*******************************************************************************
 Date__(UT)__HR:MN     R.A._________(ICRF)_________DEC
******************************************************
$$SOE
 2018-Aug-28 06:53  m  15 31 47.046174 -43 31 53.99044
 2018-Aug-28 06:54  m  15 31 47.071953 -43 31 54.36809
 2018-Aug-28 06:55  m  15 31 47.097773 -43 31 54.74550
 2018-Aug-28 06:56  m  15 31 47.123636 -43 31 55.12267
 2018-Aug-28 06:57  m  15 31 47.149542 -43 31 55.49960
 2018-Aug-28 06:58  m  15 31 47.175491 -43 31 55.87629
 2018-Aug-28 06:59  m  15 31 47.201483 -43 31 56.25275
 2018-Aug-28 07:00  m  15 31 47.227518 -43 31 56.62897
 2018-Aug-28 07:01  m  15 31 47.253596 -43 31 57.00495
 2018-Aug-28 07:02  m  15 31 47.279718 -43 31 57.38071
 2018-Aug-28 07:03  m  15 31 47.305883 -43 31 57.75623
 2018-Aug-28 07:04  m  15 31 47.332092 -43 31 58.13152
 2018-Aug-28 07:05  m  15 31 47.358345 -43 31 58.50658
 2018-Aug-28 07:06  m  15 31 47.384642 -43 31 58.88142
 2018-Aug-28 07:07  m  15 31 47.410983 -43 31 59.25603
 2018-Aug-28 07:08  m  15 31 47.437368 -43 31 59.63042
 2018-Aug-28 07:09  m  15 31 47.463798 -43 32 00.00459
 2018-Aug-28 07:10  m  15 31 47.490272 -43 32 00.37853
 2018-Aug-28 07:11  m  15 31 47.516791 -43 32 00.75226
 2018-Aug-28 07:12  m  15 31 47.543355 -43 32 01.12576
 2018-Aug-28 07:13  m  15 31 47.569963 -43 32 01.49905
 2018-Aug-28 07:14  m  15 31 47.596617 -43 32 01.87213
 2018-Aug-28 07:15  m  15 31 47.623316 -43 32 02.24499
 2018-Aug-28 07:16  m  15 31 47.650060 -43 32 02.61763
 2018-Aug-28 07:17  m  15 31 47.676850 -43 32 02.99007
 2018-Aug-28 07:18  m  15 31 47.703685 -43 32 03.36230
 2018-Aug-28 07:19  m  15 31 47.730566 -43 32 03.73432
 2018-Aug-28 07:20  m  15 31 47.757493 -43 32 04.10613
 2018-Aug-28 07:21  m  15 31 47.784466 -43 32 04.47773
 2018-Aug-28 07:22  m  15 31 47.811485 -43 32 04.84914
 2018-Aug-28 07:23  m  15 31 47.838550 -43 32 05.22034
 2018-Aug-28 07:24  m  15 31 47.865662 -43 32 05.59134
 2018-Aug-28 07:25  m  15 31 47.892819 -43 32 05.96214
 2018-Aug-28 07:26  m  15 31 47.920024 -43 32 06.33274
 2018-Aug-28 07:27  m  15 31 47.947275 -43 32 06.70314
 2018-Aug-28 07:28  m  15 31 47.974573 -43 32 07.07336
 2018-Aug-28 07:29  m  15 31 48.001918 -43 32 07.44337
 2018-Aug-28 07:30  m  15 31 48.029310 -43 32 07.81320
 2018-Aug-28 07:31  m  15 31 48.056749 -43 32 08.18283
 2018-Aug-28 07:32  m  15 31 48.084236 -43 32 08.55228
 2018-Aug-28 07:33  m  15 31 48.111770 -43 32 08.92154
 2018-Aug-28 07:34  m  15 31 48.139351 -43 32 09.29061
 2018-Aug-28 07:35  m  15 31 48.166980 -43 32 09.65950
 2018-Aug-28 07:36  m  15 31 48.194657 -43 32 10.02821
 2018-Aug-28 07:37  m  15 31 48.222382 -43 32 10.39673
 2018-Aug-28 07:38  m  15 31 48.250154 -43 32 10.76508
 2018-Aug-28 07:39  m  15 31 48.277975 -43 32 11.13324
 2018-Aug-28 07:40  m  15 31 48.305844 -43 32 11.50123
 2018-Aug-28 07:41  m  15 31 48.333761 -43 32 11.86905
 2018-Aug-28 07:42  m  15 31 48.361726 -43 32 12.23669
 2018-Aug-28 07:43  m  15 31 48.389740 -43 32 12.60416
 2018-Aug-28 07:44  m  15 31 48.417803 -43 32 12.97146
 2018-Aug-28 07:45  m  15 31 48.445914 -43 32 13.33859
 2018-Aug-28 07:46  m  15 31 48.474074 -43 32 13.70555
 2018-Aug-28 07:47  m  15 31 48.502283 -43 32 14.07235
 2018-Aug-28 07:48  m  15 31 48.530541 -43 32 14.43898
 2018-Aug-28 07:49  m  15 31 48.558848 -43 32 14.80545
 2018-Aug-28 07:50  m  15 31 48.587205 -43 32 15.17176
 2018-Aug-28 07:51  m  15 31 48.615610 -43 32 15.53791
 2018-Aug-28 07:52  m  15 31 48.644066 -43 32 15.90390
 2018-Aug-28 07:53  m  15 31 48.672570 -43 32 16.26973
 2018-Aug-28 07:54  m  15 31 48.701124 -43 32 16.63541
 2018-Aug-28 07:55  m  15 31 48.729728 -43 32 17.00094
 2018-Aug-28 07:56  m  15 31 48.758382 -43 32 17.36632
 2018-Aug-28 07:57  m  15 31 48.787086 -43 32 17.73154
 2018-Aug-28 07:58  m  15 31 48.815839 -43 32 18.09662
 2018-Aug-28 07:59  m  15 31 48.844643 -43 32 18.46155
 2018-Aug-28 08:00  m  15 31 48.873497 -43 32 18.82634
 2018-Aug-28 08:01  m  15 31 48.902401 -43 32 19.19098
 2018-Aug-28 08:02  m  15 31 48.931355 -43 32 19.55548
 2018-Aug-28 08:03  m  15 31 48.960360 -43 32 19.91984
 2018-Aug-28 08:04  m  15 31 48.989415 -43 32 20.28406
 2018-Aug-28 08:05  m  15 31 49.018521 -43 32 20.64814
 2018-Aug-28 08:06  m  15 31 49.047677 -43 32 21.01209
 2018-Aug-28 08:07  m  15 31 49.076885 -43 32 21.37590
 2018-Aug-28 08:08  m  15 31 49.106143 -43 32 21.73958
 2018-Aug-28 08:09  m  15 31 49.135452 -43 32 22.10314
 2018-Aug-28 08:10  m  15 31 49.164812 -43 32 22.46656
 2018-Aug-28 08:11  m  15 31 49.194223 -43 32 22.82985
 2018-Aug-28 08:12  m  15 31 49.223686 -43 32 23.19302
 2018-Aug-28 08:13  m  15 31 49.253199 -43 32 23.55607
 2018-Aug-28 08:14  m  15 31 49.282764 -43 32 23.91899
 2018-Aug-28 08:15  m  15 31 49.312381 -43 32 24.28179
 2018-Aug-28 08:16  m  15 31 49.342049 -43 32 24.64447
 2018-Aug-28 08:17  m  15 31 49.371768 -43 32 25.00704
 2018-Aug-28 08:18  m  15 31 49.401539 -43 32 25.36949
 2018-Aug-28 08:19  m  15 31 49.431362 -43 32 25.73183
 2018-Aug-28 08:20  m  15 31 49.461236 -43 32 26.09405
 2018-Aug-28 08:21  m  15 31 49.491162 -43 32 26.45616
 2018-Aug-28 08:22  m  15 31 49.521140 -43 32 26.81816
 2018-Aug-28 08:23  m  15 31 49.551171 -43 32 27.18006
 2018-Aug-28 08:24  m  15 31 49.581253 -43 32 27.54185
 2018-Aug-28 08:25  s  15 31 49.611387 -43 32 27.90353
 2018-Aug-28 08:26  m  15 31 49.641573 -43 32 28.26512
 2018-Aug-28 08:27  m  15 31 49.671812 -43 32 28.62660
 2018-Aug-28 08:28  m  15 31 49.702103 -43 32 28.98798
 2018-Aug-28 08:29  m  15 31 49.732446 -43 32 29.34927
 2018-Aug-28 08:30  m  15 31 49.762842 -43 32 29.71045
 2018-Aug-28 08:31  m  15 31 49.793290 -43 32 30.07155
 2018-Aug-28 08:32  m  15 31 49.823791 -43 32 30.43255
 2018-Aug-28 08:33  m  15 31 49.854345 -43 32 30.79347
 2018-Aug-28 08:34  m  15 31 49.884951 -43 32 31.15429
 2018-Aug-28 08:35  m  15 31 49.915609 -43 32 31.51502
 2018-Aug-28 08:36  m  15 31 49.946321 -43 32 31.87567
 2018-Aug-28 08:37  m  15 31 49.977085 -43 32 32.23624
 2018-Aug-28 08:38  m  15 31 50.007902 -43 32 32.59672
 2018-Aug-28 08:39  m  15 31 50.038773 -43 32 32.95713
 2018-Aug-28 08:40  m  15 31 50.069696 -43 32 33.31745
 2018-Aug-28 08:41  m  15 31 50.100672 -43 32 33.67770
 2018-Aug-28 08:42  m  15 31 50.131701 -43 32 34.03787
 2018-Aug-28 08:43  m  15 31 50.162784 -43 32 34.39797
 2018-Aug-28 08:44  m  15 31 50.193919 -43 32 34.75799
 2018-Aug-28 08:45  m  15 31 50.225108 -43 32 35.11795
 2018-Aug-28 08:46  m  15 31 50.256350 -43 32 35.47783
 2018-Aug-28 08:47  m  15 31 50.287645 -43 32 35.83765
 2018-Aug-28 08:48  m  15 31 50.318994 -43 32 36.19741
 2018-Aug-28 08:49  m  15 31 50.350396 -43 32 36.55710
 2018-Aug-28 08:50  m  15 31 50.381852 -43 32 36.91672
 2018-Aug-28 08:51  m  15 31 50.413361 -43 32 37.27629
 2018-Aug-28 08:52  m  15 31 50.444924 -43 32 37.63580
 2018-Aug-28 08:53  m  15 31 50.476540 -43 32 37.99526
 2018-Aug-28 08:54  m  15 31 50.508209 -43 32 38.35465
 2018-Aug-28 08:55  m  15 31 50.539933 -43 32 38.71400
